$$SOE
2459580.500000000, A.D. 2022-Jan-01 00:00:00.0000, 3.436177253259509E+08, 3.029984149553159E+08, 8.238328549461834E+07,
2459587.500000000, A.D. 2022-Jan-08 00:00:00.0000, 3.365746805486816E+08, 3.106813507492105E+08, 8.247408542484201E+07,
2459594.500000000, A.D. 2022-Jan-15 00:00:00.0000, 3.293695458573987E+08, 3.182146171576832E+08, 8.252515998473507E+07,
2459601.500000000, A.D. 2022-Jan-22 00:00:00.0000, 3.220057375413404E+08, 3.255945319771698E+08, 8.253647017774139E+07,
2459608.500000000, A.D. 2022-Jan-29 00:00:00.0000, 3.144867607007355E+08, 3.328174961023445E+08, 8.250799863088323E+07,
2459615.500000000, A.D. 2022-Feb-05 00:00:00.0000, 3.068162048185248E+08, 3.398799953346810E+08, 8.243974977846824E+07,
2459622.500000000, A.D. 2022-Feb-12 00:00:00.0000, 2.989977414264122E+08, 3.467786010542808E+08, 8.233174974235624E+07,
2459629.500000000, A.D. 2022-Feb-19 00:00:00.0000, 2.910351225432263E+08, 3.535099721193616E+08, 8.218404622318304E+07,
2459636.500000000, A.D. 2022-Feb-26 00:00:00.0000, 2.829321785760230E+08, 3.600708572667329E+08, 8.199670846314844E+07,
2459643.500000000, A.D. 2022-Mar-05 00:00:00.0000, 2.746928158457987E+08, 3.664580973935795E+08, 8.176982721508421E+07,
2459650.500000000, A.D. 2022-Mar-12 00:00:00.0000, 2.663210139627405E+08, 3.726686276522468E+08, 8.150351469187084E+07,
2459657.500000000, A.D. 2022-Mar-19 00:00:00.0000, 2.578208231253546E+08, 3.786994793835843E+08, 8.119790449176449E+07,
2459664.500000000, A.D. 2022-Mar-26 00:00:00.0000, 2.491963613692438E+08, 3.845477818805938E+08, 8.085315149691816E+07,
2459671.500000000, A.D. 2022-Apr-02 00:00:00.0000, 2.404518118367762E+08, 3.902107639244839E+08, 8.046943173422275E+07,
2459678.500000000, A.D. 2022-Apr-09 00:00:00.0000, 2.315914203433438E+08, 3.956857550963674E+08, 8.004694217398946E+07,
2459685.500000000, A.D. 2022-Apr-16 00:00:00.0000, 2.226194936016903E+08, 4.009701875174407E+08, 7.958590048740055E+07,
2459692.500000000, A.D. 2022-Apr-23 00:00:00.0000, 2.135403968400522E+08, 4.060615990993621E+08, 7.908654496756616E+07,
2459699.500000000, A.D. 2022-Apr-30 00:00:00.0000, 2.043585489462187E+08, 4.109576360560943E+08, 7.854913460176003E+07,
2459706.500000000, A.D. 2022-May-07 00:00:00.0000, 1.950784182029137E+08, 4.156560527040360E+08, 7.797394885344443E+07,
2459713.500000000, A.D. 2022-May-14 00:00:00.0000, 1.857045200097588E+08, 4.201547115891485E+08, 7.736128727580833E+07,
2459720.500000000, A.D. 2022-May-21 00:00:00.0000, 1.762414145653561E+08, 4.244515846976755E+08, 7.671146920513344E+07,
2459727.500000000, A.D. 2022-May-28 00:00:00.0000, 1.666937040341488E+08, 4.285447547901786E+08, 7.602483349975276E+07,
2459734.500000000, A.D. 2022-Jun-04 00:00:00.0000, 1.570660294789645E+08, 4.324324165455114E+08, 7.530173827410638E+07,
2459741.500000000, A.D. 2022-Jun-11 00:00:00.0000, 1.473630677079721E+08, 4.361128775167086E+08, 7.454256061536428E+07,
2459748.500000000, A.D. 2022-Jun-18 00:00:00.0000, 1.375895280788355E+08, 4.395845589120892E+08, 7.374769628075194E+07,
2459755.500000000, A.D. 2022-Jun-25 00:00:00.0000, 1.277501492935467E+08, 4.428459961686676E+08, 7.291755937082013E+07,
2459762.500000000, A.D. 2022-Jul-02 00:00:00.0000, 1.178496963219494E+08, 4.458958392527440E+08, 7.205258196173352E+07,
2459769.500000000, A.D. 2022-Jul-09 00:00:00.0000, 1.078929578482448E+08, 4.487328528658792E+08, 7.115321367614636E+07,
2459776.500000000, A.D. 2022-Jul-16 00:00:00.0000, 9.788474419008017E+07, 4.513559176409389E+08, 7.021992128723091E+07,
2459783.500000000, A.D. 2022-Jul-23 00:00:00.0000, 8.782988349746618E+07, 4.537640324060742E+08, 6.925318856436622E+07,
2459790.500000000, A.D. 2022-Jul-30 00:00:00.0000, 7.773321631908421E+07, 4.559563141606835E+08, 6.825351607878408E+07,
2459797.500000000, A.D. 2022-Aug-06 00:00:00.0000, 6.759959213749531E+07, 4.579319964128900E+08, 6.722142069298276E+07,
2459804.500000000, A.D. 2022-Aug-13 00:00:00.0000, 5.743386705504026E+07, 4.596904286344357E+08, 6.615743503521726E+07,
2459811.500000000, A.D. 2022-Aug-20 00:00:00.0000, 4.724090106454076E+07, 4.612310763285766E+08, 6.506210706206706E+07,
2459818.500000000, A.D. 2022-Aug-27 00:00:00.0000, 3.702555497472403E+07, 4.625535209847132E+08, 6.393599964418516E+07,
2459825.500000000, A.D. 2022-Sep-03 00:00:00.0000, 2.679268724034224E+07, 4.636574598116553E+08, 6.277969014472985E+07,
2459832.500000000, A.D. 2022-Sep-10 00:00:00.0000, 1.654715079012695E+07, 4.645427052769198E+08, 6.159376998557726E+07,
2459839.500000000, A.D. 2022-Sep-17 00:00:00.0000, 6.293789885839411E+06, 4.652091844536884E+08, 6.037884419962093E+07,
2459846.500000000, A.D. 2022-Sep-24 00:00:00.0000, -3.962562923126895E+06, 4.656569381272141E+08, 5.913553096021649E+07,
2459853.500000000, A.D. 2022-Oct-01 00:00:00.0000, -1.421708950600874E+07, 4.658861196404546E+08, 5.786446106439760E+07,
2459860.500000000, A.D. 2022-Oct-08 00:00:00.0000, -2.446498810755373E+07, 4.658969940032414E+08, 5.656627737555271E+07,
2459867.500000000, A.D. 2022-Oct-15 00:00:00.0000, -3.470147548430840E+07, 4.656899384672281E+08, 5.524163440941894E+07,
2459874.500000000, A.D. 2022-Oct-22 00:00:00.0000, -4.492179139793530E+07, 4.652654428842467E+08, 5.389119812589589E+07,
2459881.500000000, A.D. 2022-Oct-29 00:00:00.0000, -5.512120296592103E+07, 4.646241072540744E+08, 5.251564548557949E+07,
2459888.500000000, A.D. 2022-Nov-05 00:00:00.0000, -6.529500677002937E+07, 4.637666392063557E+08, 5.111566380318457E+07,
2459895.500000000, A.D. 2022-Nov-12 00:00:00.0000, -7.543853068461616E+07, 4.626938526885266E+08, 4.969195018221539E+07,
2459902.500000000, A.D. 2022-Nov-19 00:00:00.0000, -8.554713614142755E+07, 4.614066669079313E+08, 4.824521101916334E+07,
2459909.500000000, A.D. 2022-Nov-26 00:00:00.0000, -9.561622056685239E+07, 4.599061051330583E+08, 4.677616152111015E+07,
2459916.500000000, A.D. 2022-Dec-03 00:00:00.0000, -1.056412198240067E+08, 4.581932933451988E+08, 4.528552522108570E+07,
2459923.500000000, A.D. 2022-Dec-10 00:00:00.0000, -1.156176106125082E+08, 4.562694587622670E+08, 4.377403348909456E+07,
2459930.500000000, A.D. 2022-Dec-17 00:00:00.0000, -1.255409127995846E+08, 4.541359282128357E+08, 4.224242503505632E+07,
2459937.500000000, A.D. 2022-Dec-24 00:00:00.0000, -1.354066915715112E+08, 4.517941262974322E+08, 4.069144538878131E+07,
2459944.500000000, A.D. 2022-Dec-31 00:00:00.0000, -1.452105590463112E+08, 4.492455734472897E+08, 3.912184633347365E+07,
2459951.500000000, A.D. 2023-Jan-07 00:00:00.0000, -1.549481752240685E+08, 4.464918848458464E+08, 3.753438536067605E+07,
2459958.500000000, A.D. 2023-Jan-14 00:00:00.0000, -1.646152502408252E+08, 4.435347707135246E+08, 3.592982536817062E+07,
2459965.500000000, A.D. 2023-Jan-21 00:00:00.0000, -1.742075485684471E+08, 4.403760347851392E+08, 3.430893440098786E+07,
2459972.500000000, A.D. 2023-Jan-28 00:00:00.0000, -1.837208914920766E+08, 4.370175707841496E+08, 3.267248508353776E+07,
2459979.500000000, A.D. 2023-Feb-04 00:00:00.0000, -1.931511580757133E+08, 4.334613599249977E+08, 3.102125401023793E+07,
2459986.500000000, A.D. 2023-Feb-11 00:00:00.0000, -2.024942864113269E+08, 4.297094692549279E+08, 2.935602124418667E+07,
2459993.500000000, A.D. 2023-Feb-18 00:00:00.0000, -2.117462752142286E+08, 4.257640500155593E+08, 2.767756986300874E+07,
2460000.500000000, A.D. 2023-Feb-25 00:00:00.0000, -2.209031855018186E+08, 4.216273358656718E+08, 2.598668551517451E+07,
2460007.500000000, A.D. 2023-Mar-04 00:00:00.0000, -2.299611422535470E+08, 4.173016409875300E+08, 2.428415597955564E+07,
2460014.500000000, A.D. 2023-Mar-11 00:00:00.0000, -2.389163360234677E+08, 4.127893580807800E+08, 2.257077072618550E+07,
2460021.500000000, A.D. 2023-Mar-18 00:00:00.0000, -2.477650244583161E+08, 4.080929561978587E+08, 2.084732047036538E+07,
2460028.500000000, A.D. 2023-Mar-25 00:00:00.0000, -2.565035335177658E+08, 4.032149783769438E+08, 1.911459669806173E+07,
2460035.500000000, A.D. 2023-Apr-01 00:00:00.0000, -2.651282579723134E+08, 3.981580394688410E+08, 1.737339115620962E+07,
2460042.500000000, A.D. 2023-Apr-08 00:00:00.0000, -2.736356617944125E+08, 3.929248253858375E+08, 1.562449546480244E+07,
2460049.500000000, A.D. 2023-Apr-15 00:00:00.0000, -2.820222807796031E+08, 3.875180926698411E+08, 1.386870097494009E+07,
2460056.500000000, A.D. 2023-Apr-22 00:00:00.0000, -2.902847255862747E+08, 3.819406653289355E+08, 1.210679845769471E+07,
2460063.500000000, A.D. 2023-Apr-29 00:00:00.0000, -2.984196824588997E+08, 3.761954311935564E+08, 1.033957755746767E+07,
2460070.500000000, A.D. 2023-May-06 00:00:00.0000, -3.064239133984292E+08, 3.702853395748467E+08, 8.567826317219272E+06,
2460077.500000000, A.D. 2023-May-13 00:00:00.0000, -3.142942567594386E+08, 3.642133993353645E+08, 6.792330792298108E+06,
2460084.500000000, A.D. 2023-May-20 00:00:00.0000, -3.220276280416601E+08, 3.579826768844936E+08, 5.013874691280797E+06,
2460091.500000000, A.D. 2023-May-27 00:00:00.0000, -3.296210206838166E+08, 3.515962940723829E+08, 3.233239023530230E+06,
2460098.500000000, A.D. 2023-Jun-03 00:00:00.0000, -3.370715068031433E+08, 3.450574260113087E+08, 1.451201750066042E+06,
2460105.500000000, A.D. 2023-Jun-10 00:00:00.0000, -3.443762378575249E+08, 3.383692988130297E+08, -3.314625658452660E+05,
2460112.500000000, A.D. 2023-Jun-17 00:00:00.0000, -3.515324451419085E+08, 3.315351871838040E+08, -2.113983121713549E+06,
2460119.500000000, A.D. 2023-Jun-24 00:00:00.0000, -3.585374397998251E+08, 3.245584119340552E+08, -3.895593277467728E+06,
2460126.500000000, A.D. 2023-Jul-01 00:00:00.0000, -3.653886120980555E+08, 3.174423382318833E+08, -5.675530951413274E+06,
2460133.500000000, A.D. 2023-Jul-08 00:00:00.0000, -3.720834316405087E+08, 3.101903754239504E+08, -7.453038789974213E+06,
2460140.500000000, A.D. 2023-Jul-15 00:00:00.0000, -3.786194498000619E+08, 3.028059755965931E+08, -9.227364225634083E+06,
2460147.500000000, A.D. 2023-Jul-22 00:00:00.0000, -3.849943008466806E+08, 2.952926298442028E+08, -1.099775983058196E+07,
$$EOE